NORAD_CAT_ID,OBJECT_NAME,OBJECT_TYPE,EPOCH,MEAN_MOTION,ECCENTRICITY,INCLINATION,RA_OF_ASC_NODE,ARG_OF_PERICENTER,MEAN_ANOMALY,BSTAR,MEAN_MOTION_DOT,MEAN_MOTION_DDOT,TLE_LINE0,TLE_LINE1,TLE_LINE2,SEMIMAJOR_AXIS,PERIOD,APOGEE,PERIGEE,DECAYED
51811.0,STARLINK-3569,PAYLOAD,2023-04-10 08:22:31,15.08841234,0.0001585,53.2162,77.1249,102.4869,257.6301,7.6004e-05,9.22e-06,0.0,0 STARLINK-3569,1 51811U 22017AV  23100.34897400  .00000922  00000-0  76004-4 0  9993,2 51811  53.2162  77.1249 0001585 102.4869 257.6301 15.08841234 63386,6917.877,95.437,540.838,538.645,0.0
51811.0,STARLINK-3569,PAYLOAD,2023-04-10 09:57:54,15.088507,0.0001448,53.2168,76.8285,99.0307,261.0849,3.8009e-05,3.17e-06,0.0,0 STARLINK-3569,1 51811U 22017AV  23100.41520853  .00000317  00000-0  38009-4 0  9997,2 51811  53.2168  76.8285 0001448  99.0307 261.0849 15.08850700 63298,6917.848,95.437,540.714,538.711,0.0
51811.0,STARLINK-3569,PAYLOAD,2023-04-11 05:02:32,15.08836423,0.0001725,53.2172,73.261,108.5089,251.6091,6.4814e-06,-1.85e-06,0.0,0 STARLINK-3569,1 51811U 22017AV  23101.21009660 -.00000185  00000-0  64814-5 0  9992,2 51811  53.2172  73.2610 0001725 108.5089 251.6091 15.08836423 63411,6917.891,95.438,540.95,538.563,0.0
51811.0,STARLINK-3569,PAYLOAD,2023-04-11 20:56:23,15.08836387,0.0001482,53.2171,70.2905,93.1275,266.9887,9.0851e-05,1.158e-05,0.0,0 STARLINK-3569,1 51811U 22017AV  23101.87249986  .00001158  00000-0  90851-4 0  9990,2 51811  53.2171  70.2905 0001482  93.1275 266.9887 15.08836387 63512,6917.891,95.438,540.782,538.731,0.0
51811.0,STARLINK-3569,PAYLOAD,2023-04-12 08:04:05,15.08837903,0.0001307,53.2165,68.2072,100.2143,259.8996,3.3084e-05,2.39e-06,0.0,0 STARLINK-3569,1 51811U 22017AV  23102.33618017  .00000239  00000-0  33084-4 0  9991,2 51811  53.2165  68.2072 0001307 100.2143 259.8996 15.08837903 63581,6917.887,95.438,540.656,538.848,0.0
51811.0,STARLINK-3569,PAYLOAD,2023-04-13 06:19:30,15.08835571,0.0001686,53.218,64.0438,107.9979,252.1196,0.00012788,1.748e-05,0.0,0 STARLINK-3569,1 51811U 22017AV  23103.26354659  .00001748  00000-0  12788-3 0  9996,2 51811  53.2180  64.0438 0001686 107.9979 252.1196 15.08835571 63722,6917.894,95.438,540.925,538.593,0.0
51811.0,STARLINK-3569,PAYLOAD,2023-04-14 07:45:40,15.08847597,0.0001273,53.2171,59.2843,86.5616,273.5522,0.000194,2.802e-05,0.0,0 STARLINK-3569,1 51811U 22017AV  23104.32337994  .00002802  00000-0  19400-3 0  9997,2 51811  53.2171  59.2843 0001273  86.5616 273.5522 15.08847597 63888,6917.857,95.437,540.603,538.842,0.0
51811.0,STARLINK-3569,PAYLOAD,2023-04-15 02:50:17,15.08843767,0.0001154,53.2156,55.7148,98.5235,261.5888,7.3959e-05,8.9e-06,0.0,0 STARLINK-3569,1 51811U 22017AV  23105.11826159  .00000890  00000-0  73959-4 0  9996,2 51811  53.2156  55.7148 0001154  98.5235 261.5888 15.08843767 64101,6917.869,95.437,540.532,538.936,0.0
51811.0,STARLINK-3569,PAYLOAD,2023-04-15 06:01:03,15.08849407,0.0001269,53.2166,55.121,111.5483,248.5645,0.00014371,2.001e-05,0.0,0 STARLINK-3569,1 51811U 22017AV  23105.25073868  .00002001  00000-0  14371-3 0  9990,2 51811  53.2166  55.1210 0001269 111.5483 248.5645 15.08849407 64028,6917.852,95.437,540.595,538.839,0.0
51811.0,STARLINK-3569,PAYLOAD,2023-04-16 05:51:50,15.08848609,0.000114,53.2158,50.661,114.9064,245.2046,0.00015189,2.131e-05,0.0,0 STARLINK-3569,1 51811U 22017AV  23106.24433817  .00002131  00000-0  15189-3 0  9996,2 51811  53.2158  50.6610 0001140 114.9064 245.2046 15.08848609 64171,6917.854,95.437,540.508,538.93,0.0
51811.0,STARLINK-3569,PAYLOAD,2023-04-17 02:31:52,15.08843572,0.0001511,53.2174,46.7973,97.7947,262.3216,3.228e-05,2.26e-06,0.0,0 STARLINK-3569,1 51811U 22017AV  23107.10546328  .00000226  00000-0  32280-4 0  9999,2 51811  53.2174  46.7973 0001511  97.7947 262.3216 15.08843572 64406,6917.869,95.437,540.78,538.689,0.0
51811.0,STARLINK-3569,PAYLOAD,2023-04-17 05:42:38,15.08844001,0.0001563,53.2173,46.1998,103.7205,256.3961,0.00014871,2.08e-05,0.0,0 STARLINK-3569,1 51811U 22017AV  23107.23794276  .00002080  00000-0  14871-3 0  9995,2 51811  53.2173  46.1998 0001563 103.7205 256.3961 15.08844001 64327,6917.868,95.437,540.814,538.652,0.0
51811.0,STARLINK-3569,PAYLOAD,2023-04-18 05:33:25,15.08849297,0.0001241,53.2166,41.7405,101.3896,258.7235,0.00026906,3.998e-05,0.0,0 STARLINK-3569,1 51811U 22017AV  23108.23154133  .00003998  00000-0  26906-3 0  9999,2 51811  53.2166  41.7405 0001241 101.3896 258.7235 15.08849297 64575,6917.852,95.437,540.575,538.858,0.0
51811.0,STARLINK-3569,PAYLOAD,2023-04-18 19:51:53,15.08838279,0.0001557,53.2171,39.0618,120.0035,240.1112,6.6301e-05,7.67e-06,0.0,0 STARLINK-3569,1 51811U 22017AV  23108.82770727  .00000767  00000-0  66301-4 0  9992,2 51811  53.2171  39.0618 0001557 120.0035 240.1112 15.08838279 64566,6917.886,95.438,540.828,538.674,0.0
51811.0,STARLINK-3569,PAYLOAD,2023-04-19 03:48:49,15.08849804,0.000125,53.2178,37.5798,112.2647,247.8478,0.00026486,3.931e-05,0.0,0 STARLINK-3569,1 51811U 22017AV  23109.15890354  .00003931  00000-0  26486-3 0  9993,2 51811  53.2178  37.5798 0001250 112.2647 247.8478 15.08849804 64719,6917.85,95.437,540.58,538.851,0.0
51811.0,STARLINK-3569,PAYLOAD,2023-04-19 05:24:12,15.0885416,0.0001182,53.2169,37.2808,109.625,250.487,0.00034897,5.272e-05,0.0,0 STARLINK-3569,1 51811U 22017AV  23109.22514092  .00005272  00000-0  34897-3 0  9998,2 51811  53.2169  37.2808 0001182 109.6250 250.4870 15.08854160 64629,6917.837,95.437,540.52,538.884,0.0
51811.0,STARLINK-3569,PAYLOAD,2023-04-20 03:39:36,15.08846193,0.0001008,53.2171,33.1194,106.5514,253.5588,0.00022572,3.307e-05,0.0,0 STARLINK-3569,1 51811U 22017AV  23110.15250330  .00003307  00000-0  22572-3 0  9998,2 51811  53.2171  33.1194 0001008 106.5514 253.5588 15.08846193 64864,6917.861,95.437,540.424,539.029,0.0
51811.0,STARLINK-3569,PAYLOAD,2023-04-20 05:14:59,15.08848674,9.89e-05,53.217,32.8217,104.8649,255.2453,0.00030087,4.505e-05,0.0,0 STARLINK-3569,1 51811U 22017AV  23110.21874285  .00004505  00000-0  30087-3 0  9997,2 51811  53.2170  32.8217 0000989 104.8649 255.2453 15.08848674 64778,6917.854,95.437,540.403,539.035,0.0
51811.0,STARLINK-3569,PAYLOAD,2023-04-21 11:27:20,15.08832002,9.9e-05,53.2172,27.1727,95.8326,264.2779,0.0004675,7.159e-05,0.0,0 STARLINK-3569,1 51811U 22017AV  23111.47731907  .00007159  00000-0  46750-3 0  9991,2 51811  53.2172  27.1727 0000990  95.8326 264.2779 15.08832002 64966,6917.905,95.438,540.455,539.085,0.0
51811.0,STARLINK-3569,PAYLOAD,2023-04-21 17:48:52,15.08843119,7.65e-05,53.2169,25.9836,93.5901,266.5178,0.00056734,8.754e-05,0.0,0 STARLINK-3569,1 51811U 22017AV  23111.74227717  .00008754  00000-0  56734-3 0  9995,2 51811  53.2169  25.9836 0000765  93.5901 266.5178 15.08843119 65109,6917.871,95.437,540.265,539.207,0.0
51811.0,STARLINK-3569,PAYLOAD,2023-04-21 19:24:15,15.08846717,8.15e-05,53.2173,25.6861,92.1506,267.9579,0.00068555,0.00010641,0.0,0 STARLINK-3569,1 51811U 22017AV  23111.80851711  .00010641  00000-0  68555-3 0  9991,2 51811  53.2173  25.6861 0000815  92.1506 267.9579 15.08846717 65018,6917.86,95.437,540.289,539.161,0.0
51811.0,STARLINK-3569,PAYLOAD,2023-04-22 17:39:39,15.08863057,0.0001208,53.2154,21.5238,79.4439,280.6689,0.00055805,8.61e-05,0.0,0 STARLINK-3569,1 51811U 22017AV  23112.73586907  .00008610  00000-0  55805-3 0  9993,2 51811  53.2154  21.5238 0001208  79.4439 280.6689 15.08863057 65155,6917.81,95.436,540.511,538.839,0.0
51811.0,STARLINK-3569,PAYLOAD,2023-04-23 00:01:11,15.08861005,9.5e-05,53.2165,20.3322,104.889,255.2207,0.00050406,7.748e-05,0.0,0 STARLINK-3569,1 51811U 22017AV  23113.00082569  .00007748  00000-0  50406-3 0  9992,2 51811  53.2165  20.3322 0000950 104.8890 255.2207 15.08861005 65194,6917.816,95.436,540.338,539.024,0.0
51811.0,STARLINK-3569,PAYLOAD,2023-04-23 17:30:25,15.08846187,0.0001466,53.2175,17.0637,106.6225,253.4928,0.00039252,5.966e-05,0.0,0 STARLINK-3569,1 51811U 22017AV  23113.72946696  .00005966  00000-0  39252-3 0  9997,2 51811  53.2175  17.0637 0001466 106.6225 253.4928 15.08846187 65400,6917.861,95.437,540.741,538.712,0.0
51811.0,STARLINK-3569,PAYLOAD,2023-04-23 23:51:58,15.08863222,0.0001153,53.2169,15.8725,96.5623,263.55,0.00056277,8.686e-05,0.0,0 STARLINK-3569,1 51811U 22017AV  23113.99442419  .00008686  00000-0  56277-3 0  9998,2 51811  53.2169  15.8725 0001153  96.5623 263.5500 15.08863222 65349,6917.809,95.436,540.472,538.877,0.0
51811.0,STARLINK-3569,PAYLOAD,2023-04-24 23:42:43,15.08884008,0.0001251,53.2165,11.4141,72.3847,287.7281,0.00086042,0.00013449,0.0,0 STARLINK-3569,1 51811U 22017AV  23114.98800522  .00013449  00000-0  86042-3 0  9997,2 51811  53.2165  11.4141 0001251  72.3847 287.7281 15.08884008 65493,6917.746,95.435,540.476,538.745,0.0
51811.0,STARLINK-3569,PAYLOAD,2023-04-26 04:19:42,15.08808674,0.0001251,53.2181,6.0604,89.2871,270.8265,-0.00027208,-4.612e-05,0.0,0 STARLINK-3569,1 51811U 22017AV  23116.18035747 -.00004612  00000-0 -27208-3 0  9993,2 51811  53.2181   6.0604 0001251  89.2871 270.8265 15.08808674 65679,6917.976,95.44,540.707,538.976,0.0
51811.0,STARLINK-3569,PAYLOAD,2023-04-27 02:35:08,15.08825336,0.0001295,53.2186,1.896,80.5739,279.5399,0.00068392,0.00010609,0.0,0 STARLINK-3569,1 51811U 22017AV  23117.10773467  .00010609  00000-0  68392-3 0  9994,2 51811  53.2186   1.8960 0001295  80.5739 279.5399 15.08825336 65912,6917.925,95.438,540.686,538.894,0.0
51811.0,STARLINK-3569,PAYLOAD,2023-04-28 00:50:31,15.0887995,0.0001232,53.2172,357.734,90.7516,269.3618,0.0014601,0.00023051,0.0,0 STARLINK-3569,1 51811U 22017AV  23118.03508186  .00023051  00000-0  14601-2 0  9999,2 51811  53.2172 357.7340 0001232  90.7516 269.3618 15.08879950 66057,6917.758,95.435,540.476,538.771,0.0
51811.0,STARLINK-3569,PAYLOAD,2023-04-28 08:47:26,15.08863833,0.0001126,53.2169,356.2475,99.365,260.7469,0.00055533,8.567e-05,0.0,0 STARLINK-3569,1 51811U 22017AV  23118.36627985  .00008567  00000-0  55533-3 0  9999,2 51811  53.2169 356.2475 0001126  99.3650 260.7469 15.08863833 66100,6917.808,95.436,540.451,538.894,0.0
